{"fetched_at":"2026-07-23T17:55:51.007Z","source":"https://celestrak.org/NORAD/elements/gp.php?NAME=SENTINEL&FORMAT=JSON","constellation":"sentinel-1","records":[{"OBJECT_NAME":"SENTINEL-1A","OBJECT_ID":"2014-016A","EPOCH":"2026-07-23T03:53:05.273376","CLASSIFICATION_TYPE":"U","MEAN_MOTION":14.59173724,"ECCENTRICITY":0.00014476,"INCLINATION":98.1698,"RA_OF_ASC_NODE":211.165,"ARG_OF_PERICENTER":85.2053,"MEAN_ANOMALY":274.9312,"EPHEMERIS_TYPE":0,"NORAD_CAT_ID":39634,"ELEMENT_SET_NO":999,"REV_AT_EPOCH":65526,"BSTAR":0.000009543903,"MEAN_MOTION_DOT":-1e-8,"MEAN_MOTION_DDOT":0},{"OBJECT_NAME":"SENTINEL-1B","OBJECT_ID":"2016-025A","EPOCH":"2026-07-23T07:11:51.389376","CLASSIFICATION_TYPE":"U","MEAN_MOTION":14.99300237,"ECCENTRICITY":0.00144593,"INCLINATION":98.0886,"RA_OF_ASC_NODE":266.4462,"ARG_OF_PERICENTER":11.4641,"MEAN_ANOMALY":348.6907,"EPHEMERIS_TYPE":0,"NORAD_CAT_ID":41456,"ELEMENT_SET_NO":999,"REV_AT_EPOCH":54919,"BSTAR":0.00012646679,"MEAN_MOTION_DOT":0.00001482,"MEAN_MOTION_DDOT":0},{"OBJECT_NAME":"SENTINEL-1C","OBJECT_ID":"2024-235A","EPOCH":"2026-07-23T04:49:40.960128","CLASSIFICATION_TYPE":"U","MEAN_MOTION":14.59198062,"ECCENTRICITY":0.00013765,"INCLINATION":98.1823,"RA_OF_ASC_NODE":210.9988,"ARG_OF_PERICENTER":88.2696,"MEAN_ANOMALY":271.8661,"EPHEMERIS_TYPE":0,"NORAD_CAT_ID":62261,"ELEMENT_SET_NO":999,"REV_AT_EPOCH":8666,"BSTAR":0.000076671673,"MEAN_MOTION_DOT":0.00000316,"MEAN_MOTION_DDOT":0},{"OBJECT_NAME":"SENTINEL-1D","OBJECT_ID":"2025-251A","EPOCH":"2026-07-23T00:43:02.955648","CLASSIFICATION_TYPE":"U","MEAN_MOTION":14.59198292,"ECCENTRICITY":0.00013849,"INCLINATION":98.1828,"RA_OF_ASC_NODE":210.885,"ARG_OF_PERICENTER":93.7762,"MEAN_ANOMALY":266.3596,"EPHEMERIS_TYPE":0,"NORAD_CAT_ID":66315,"ELEMENT_SET_NO":999,"REV_AT_EPOCH":3795,"BSTAR":0.000021004053,"MEAN_MOTION_DOT":5.3e-7,"MEAN_MOTION_DDOT":0}]}
