{"epoch":1784817359,"count":18317,"objects":[{"id":"39634","name":"SENTINEL 1A","type":"PAYLOAD","l1":"1 39634U 14016A   26204.16186659 -.00000001  00000-0  95439-5 0  9990","l2":"2 39634  98.1698 211.1650 0001448  85.2053 274.9312 14.59173724655269"},{"id":"41456","name":"SENTINEL 1B","type":"PAYLOAD","l1":"1 41456U 16025A   26204.29990034  .00001482  00000-0  12647-3 0  9992","l2":"2 41456  98.0886 266.4462 0014459  11.4641 348.6907 14.99300237549194"},{"id":"62261","name":"SENTINEL 1C","type":"PAYLOAD","l1":"1 62261U 24235A   26204.20116852  .00000316  00000-0  76672-4 0  9994","l2":"2 62261  98.1823 210.9988 0001376  88.2696 271.8661 14.59198062 86665"},{"id":"66315","name":"SENTINEL-1D","type":"PAYLOAD","l1":"1 66315U 25251A   26204.02989532  .00000053  00000-0  21004-4 0  9997","l2":"2 66315  98.1828 210.8850 0001385  93.7762 266.3596 14.59198292 37955"}]}